{
    "links": {
        "self": "http://www.neowsapp.com/rest/v1/neo/3748471?api_key=iIulBulltgU6a56xZRHN4H3l9WmuAYTsLGpBGhQ2"
    },
    "id": "3748471",
    "neo_reference_id": "3748471",
    "name": "(2016 FT12)",
    "designation": "2016 FT12",
    "nasa_jpl_url": "http://ssd.jpl.nasa.gov/sbdb.cgi?sstr=3748471",
    "absolute_magnitude_h": 25.9,
    "estimated_diameter": {
        "kilometers": {
            "estimated_diameter_min": 0.0175612318,
            "estimated_diameter_max": 0.0392681082
        },
        "meters": {
            "estimated_diameter_min": 17.561231848,
            "estimated_diameter_max": 39.2681081809
        },
        "miles": {
            "estimated_diameter_min": 0.0109120402,
            "estimated_diameter_max": 0.0244000636
        },
        "feet": {
            "estimated_diameter_min": 57.6155918963,
            "estimated_diameter_max": 128.8323800441
        }
    },
    "is_potentially_hazardous_asteroid": false,
    "close_approach_data": [
        {
            "close_approach_date": "2016-04-20",
            "close_approach_date_full": "2016-Apr-20 01:56",
            "epoch_date_close_approach": 1461117360000,
            "relative_velocity": {
                "kilometers_per_second": "3.6362155339",
                "kilometers_per_hour": "13090.3759219979",
                "miles_per_hour": "8133.8505277548"
            },
            "miss_distance": {
                "astronomical": "0.1696522108",
                "lunar": "65.9947100012",
                "kilometers": "25379609.376470996",
                "miles": "15770157.9945959048"
            },
            "orbiting_body": "Earth"
        }
    ],
    "orbital_data": {
        "orbit_id": "4",
        "orbit_determination_date": "2017-04-06 08:27:11",
        "first_observation_date": "2016-03-28",
        "last_observation_date": "2016-04-01",
        "data_arc_in_days": 4,
        "observations_used": 16,
        "orbit_uncertainty": "9",
        "minimum_orbit_intersection": ".164736",
        "jupiter_tisserand_invariant": "3.759",
        "epoch_osculation": "2457478.5",
        "eccentricity": ".4121882018339847",
        "semi_major_axis": "1.970737812459614",
        "inclination": "4.307383073883704",
        "ascending_node_longitude": "343.0082447557309",
        "orbital_period": "1010.512525511703",
        "perihelion_distance": "1.158422937255645",
        "perihelion_argument": "227.8142046261004",
        "aphelion_distance": "2.783052687663582",
        "perihelion_time": "2457501.507599123893",
        "mean_anomaly": "351.8034309565759",
        "mean_motion": ".3562548616779424",
        "equinox": "J2000",
        "orbit_class": {
            "orbit_class_type": "AMO",
            "orbit_class_description": "Near-Earth asteroid orbits similar to that of 1221 Amor",
            "orbit_class_range": "1.017 AU < q (perihelion) < 1.3 AU"
        }
    },
    "is_sentry_object": false
}